*******************************************************************************
Ephemeris / PORT_LOGIN Sun Nov 27 10:14:36 2011 Pasadena, USA    / Horizons    
*******************************************************************************
Target body name: Oberon (704)                    {source: URA083}
Center body name: Solar System Barycenter (0)     {source: DE405}
Center-site name: BODY CENTER
*******************************************************************************
Start time      : A.D. 2001-Jan-01 10:00:00.0000 CT 
Stop  time      : A.D. 2001-Jan-02 00:00:00.0000 CT 
Step-size       : 60 minutes
*******************************************************************************
Center geodetic : 0.00000000,0.00000000,0.0000000 {E-lon(deg),Lat(deg),Alt(km)}
Center cylindric: 0.00000000,0.00000000,0.0000000 {E-lon(deg),Dxy(km),Dz(km)}
Center radii    : (undefined)                                                  
Output units    : AU-D                                                         
Output format   : 03
Reference frame : ICRF/J2000.0                                                 
Output type     : GEOMETRIC cartesian states
Coordinate systm: Earth Mean Equator and Equinox of Reference Epoch            
*******************************************************************************
JDCT 
   X     Y     Z
   VX    VY    VZ
   LT    RG    RR
*******************************************************************************
$$SOE
2451910.916666667 = A.D. 2001-Jan-01 10:00:00.0000 (CT)
   1.536746946977791E+01 -1.158030685909536E+01 -5.285959396615259E+00
   3.910930626259363E-03  2.036725134171501E-03  2.072601189837788E-03
   1.152507528899501E-01  1.995504927576057E+01  1.280854728447610E-03
2451910.958333333 = A.D. 2001-Jan-01 11:00:00.0000 (CT)
   1.536763284982181E+01 -1.158022192549426E+01 -5.285873635811464E+00
   3.931221097231205E-03  2.040124389698724E-03  2.043857334646461E-03
   1.152510636967926E-01  1.995510309029715E+01  1.302168050310157E-03
2451911.000000000 = A.D. 2001-Jan-01 12:00:00.0000 (CT)
   1.536779706395039E+01 -1.158013684568236E+01 -5.285789080100421E+00
   3.950965410699877E-03  2.043743040388292E-03  2.014758544494494E-03
   1.152513795781597E-01  1.995515778346043E+01  1.323027466190724E-03
2451911.041666667 = A.D. 2001-Jan-01 13:00:00.0000 (CT)
   1.536796208924846E+01 -1.158005161054524E+01 -5.285705744044286E+00
   3.970155985978596E-03  2.047579774880444E-03  1.985315728664293E-03
   1.152517004238573E-01  1.995521333617088E+01  1.343424999208732E-03
2451911.083333333 = A.D. 2001-Jan-01 14:00:00.0000 (CT)
   1.536812790248926E+01 -1.157996621102484E+01 -5.285623641747841E+00
   3.988785450372218E-03  2.051633198501635E-03  1.955539930966953E-03
   1.152520261217922E-01  1.995526972902019E+01  1.363352845578282E-03
2451911.125000000 = A.D. 2001-Jan-01 15:00:00.0000 (CT)
   1.536829448014321E+01 -1.157988063812294E+01 -5.285542786852978E+00
   4.006846641194577E-03  2.055901833886472E-03  1.925442325784238E-03
   1.152523565580146E-01  1.995532694227855E+01  1.382803376853442E-03
2451911.166666667 = A.D. 2001-Jan-01 16:00:00.0000 (CT)
   1.536846179838670E+01 -1.157979488290459E+01 -5.285463192533340E+00
   4.024332607841163E-03  2.060384121629618E-03  1.895034213954399E-03
   1.152526916167602E-01  1.995538495590199E+01  1.401769142239663E-03
2451911.208333333 = A.D. 2001-Jan-01 17:00:00.0000 (CT)
   1.536862983311098E+01 -1.157970893650150E+01 -5.285384871489142E+00
   4.041236613987555E-03  2.065078420944859E-03  1.864327018536094E-03
   1.152530311804933E-01  1.995544374953981E+01  1.420242871029735E-03
2451911.250000000 = A.D. 2001-Jan-01 18:00:00.0000 (CT)
   1.536879855993109E+01 -1.157962279011544E+01 -5.285307835942164E+00
   4.057552139931806E-03  2.069983010318446E-03  1.833332280487316E-03
   1.152533751299502E-01  1.995550330254220E+01  1.438217475176006E-03
2451911.291666667 = A.D. 2001-Jan-01 19:00:00.0000 (CT)
   1.536896795419502E+01 -1.157953643502160E+01 -5.285232097630932E+00
   4.073272885064550E-03  2.075096088151443E-03  1.802061654293709E-03
   1.152537233441842E-01  1.995556359396783E+01  1.455686051980315E-03
2451911.333333333 = A.D. 2001-Jan-01 20:00:00.0000 (CT)
   1.536913799099280E+01 -1.157944986257185E+01 -5.285157667806083E+00
   4.088392770430091E-03  2.080415773391506E-03  1.770526903574872E-03
   1.152540757006096E-01  1.995562460259169E+01  1.472641886865547E-03
2451911.375000000 = A.D. 2001-Jan-01 21:00:00.0000 (CT)
   1.536930864516586E+01 -1.157936306419812E+01 -5.285084557225905E+00
   4.102905941331629E-03  2.085940106158417E-03  1.738739896689648E-03
   1.152544320750482E-01  1.995568630691296E+01  1.489078456184658E-03
2451911.416666667 = A.D. 2001-Jan-01 22:00:00.0000 (CT)
   1.536947989131639E+01 -1.157927603141561E+01 -5.285012776152063E+00
   4.116806769931465E-03  2.091667048370363E-03  1.706712602353177E-03
   1.152547923417749E-01  1.995574868516301E+01  1.504989430021900E-03
2451911.458333333 = A.D. 2001-Jan-01 23:00:00.0000 (CT)
   1.536965170381685E+01 -1.157918875582608E+01 -5.284942334345512E+00
   4.130089857800027E-03  2.097594484379289E-03  1.674457085270499E-03
   1.152551563735648E-01  1.995581171531358E+01  1.520368674944567E-03
2451911.500000000 = A.D. 2001-Jan-02 00:00:00.0000 (CT)
   1.536982405681961E+01 -1.157910122912103E+01 -5.284873241062586E+00
   4.142750038374052E-03  2.103720221624176E-03  1.641985501784326E-03
   1.152555240417414E-01  1.995587537508495E+01  1.535210256670260E-03
$$EOE
*******************************************************************************
Coordinate system description:

  Earth Mean Equator and Equinox of Reference Epoch

    Reference epoch: J2000.0
    xy-plane: plane of the Earth's mean equator at the reference epoch
    x-axis  : out along ascending node of instantaneous plane of the Earth's
              orbit and the Earth's mean equator at the reference epoch
    z-axis  : along the Earth mean north pole at the reference epoch

Symbol meaning [1 AU=149597870.691 km, 1 day=86400.0 s]:

    JDCT     Epoch Julian Date, Coordinate Time
      X      x-component of position vector (AU)                               
      Y      y-component of position vector (AU)                               
      Z      z-component of position vector (AU)                               
      VX     x-component of velocity vector (AU/day)                           
      VY     y-component of velocity vector (AU/day)                           
      VZ     z-component of velocity vector (AU/day)                           
      LT     One-way down-leg Newtonian light-time (day)                       
      RG     Range; distance from coordinate center (AU)                       
      RR     Range-rate; radial velocity wrt coord. center (AU/day)            

Geometric states/elements have no aberration corrections applied.

 Computations by ...
     Solar System Dynamics Group, Horizons On-Line Ephemeris System
     4800 Oak Grove Drive, Jet Propulsion Laboratory
     Pasadena, CA  91109   USA
     Information: http://ssd.jpl.nasa.gov/
     Connect    : telnet://ssd.jpl.nasa.gov:6775  (via browser)
                  telnet ssd.jpl.nasa.gov 6775    (via command-line)
     Author     : Jon.Giorgini@jpl.nasa.gov
*******************************************************************************
